NORAD_CAT_ID,OBJECT_NAME,OBJECT_TYPE,EPOCH,MEAN_MOTION,ECCENTRICITY,INCLINATION,RA_OF_ASC_NODE,ARG_OF_PERICENTER,MEAN_ANOMALY,BSTAR,MEAN_MOTION_DOT,MEAN_MOTION_DDOT,TLE_LINE0,TLE_LINE1,TLE_LINE2,SEMIMAJOR_AXIS,PERIOD,APOGEE,PERIGEE,DECAYED
52379.0,STARLINK-3800,PAYLOAD,2024-06-16 22:29:31,15.08840507,0.000154,53.2167,140.678,95.7926,264.3242,-3.4857e-05,-8.43e-06,0.0,0 STARLINK-3800,1 52379U 22045BA  24168.93716488 -.00000843  00000-0 -34857-4 0  9994,2 52379  53.2167 140.6780 0001540  95.7926 264.3242 15.08840507120707,6917.879,95.438,540.809,538.678,0.0
52379.0,STARLINK-3800,PAYLOAD,2024-06-17 08:01:49,15.0884113,0.0001532,53.2169,138.8944,96.5823,263.5344,-3.7854e-06,-3.48e-06,0.0,0 STARLINK-3800,1 52379U 22045BA  24169.33460384 -.00000348  00000-0 -37854-5 0  9991,2 52379  53.2169 138.8944 0001532  96.5823 263.5344 15.08841130120769,6917.877,95.437,540.802,538.682,0.0
52379.0,STARLINK-3800,PAYLOAD,2024-06-18 14:14:09,15.08838402,0.0001302,53.2156,133.2461,92.2058,267.9083,5.017e-06,-2.08e-06,0.0,0 STARLINK-3800,1 52379U 22045BA  24170.59316602 -.00000208  00000-0  50170-5 0  9994,2 52379  53.2156 133.2461 0001302  92.2058 267.9083 15.08838402120953,6917.885,95.438,540.651,538.85,0.0
52379.0,STARLINK-3800,PAYLOAD,2024-06-19 14:04:55,15.08853778,0.0001385,53.217,128.7855,93.2557,266.8593,0.00013584,1.875e-05,0.0,0 STARLINK-3800,1 52379U 22045BA  24171.58675236  .00001875  00000-0  13584-3 0  9991,2 52379  53.2170 128.7855 0001385  93.2557 266.8593 15.08853778121106,6917.838,95.437,540.661,538.745,0.0
52379.0,STARLINK-3800,PAYLOAD,2024-06-20 04:23:23,15.08851053,0.0001418,53.2175,126.1088,84.8593,275.2561,0.00012065,1.633e-05,0.0,0 STARLINK-3800,1 52379U 22045BA  24172.18291293  .00001633  00000-0  12065-3 0  9990,2 52379  53.2175 126.1088 0001418  84.8593 275.2561 15.08851053121196,6917.847,95.437,540.693,538.731,0.0
52379.0,STARLINK-3800,PAYLOAD,2024-06-20 05:58:46,15.08852768,0.0001398,53.2174,125.811,83.0668,277.0483,0.00012839,1.757e-05,0.0,0 STARLINK-3800,1 52379U 22045BA  24172.24915072  .00001757  00000-0  12839-3 0  9991,2 52379  53.2174 125.8110 0001398  83.0668 277.0483 15.08852768121207,6917.841,95.437,540.673,538.739,0.0
52379.0,STARLINK-3800,PAYLOAD,2024-06-21 04:14:12,15.08832587,0.0001315,53.2177,121.6488,89.8812,270.2331,-0.00015277,-2.718e-05,0.0,0 STARLINK-3800,1 52379U 22045BA  24173.17653558 -.00002718  00000-0 -15277-3 0  9991,2 52379  53.2177 121.6488 0001315  89.8812 270.2331 15.08832587121345,6917.903,95.438,540.678,538.858,0.0
52379.0,STARLINK-3800,PAYLOAD,2024-06-21 05:49:35,15.08831072,0.0001343,53.2178,121.3519,87.1871,272.9274,-0.00016251,-2.873e-05,0.0,0 STARLINK-3800,1 52379U 22045BA  24173.24277738 -.00002873  00000-0 -16251-3 0  9996,2 52379  53.2178 121.3519 0001343  87.1871 272.9274 15.08831072121359,6917.908,95.438,540.702,538.844,0.0
52379.0,STARLINK-3800,PAYLOAD,2024-06-21 20:08:04,15.08833883,0.0001294,53.2176,118.6744,79.9657,280.1481,-8.111e-05,-1.578e-05,0.0,0 STARLINK-3800,1 52379U 22045BA  24173.83893523 -.00001578  00000-0 -81110-4 0  9995,2 52379  53.2176 118.6744 0001294  79.9657 280.1481 15.08833883121445,6917.899,95.438,540.659,538.869,0.0
52379.0,STARLINK-3800,PAYLOAD,2024-06-22 04:04:58,15.08845114,0.0001353,53.2171,117.1898,72.7368,287.3772,-2.7467e-05,-7.25e-06,0.0,0 STARLINK-3800,1 52379U 22045BA  24174.17012730 -.00000725  00000-0 -27467-4 0  9994,2 52379  53.2171 117.1898 0001353  72.7368 287.3772 15.08845114121497,6917.865,95.437,540.666,538.794,0.0
52379.0,STARLINK-3800,PAYLOAD,2024-06-22 05:40:21,15.08847971,0.0001203,53.2166,116.891,81.6651,278.4478,-8.1986e-06,-4.18e-06,0.0,0 STARLINK-3800,1 52379U 22045BA  24174.23636412 -.00000418  00000-0 -81986-5 0  9996,2 52379  53.2166 116.8910 0001203  81.6651 278.4478 15.08847971121509,6917.856,95.437,540.553,538.889,0.0
52379.0,STARLINK-3800,PAYLOAD,2024-06-22 19:58:50,15.08832806,0.0001393,53.217,114.2153,72.1176,287.9968,0.00019045,2.744e-05,0.0,0 STARLINK-3800,1 52379U 22045BA  24174.83253050  .00002744  00000-0  19045-3 0  9992,2 52379  53.2170 114.2153 0001393  72.1176 287.9968 15.08832806121591,6917.902,95.438,540.731,538.804,0.0
52379.0,STARLINK-3800,PAYLOAD,2024-06-23 05:31:08,15.08844516,0.0001293,53.2157,112.4288,91.7576,268.3564,0.00028686,4.281e-05,0.0,0 STARLINK-3800,1 52379U 22045BA  24175.22996184  .00004281  00000-0  28686-3 0  9997,2 52379  53.2157 112.4288 0001293  91.7576 268.3564 15.08844516121658,6917.867,95.437,540.626,538.837,0.0
52379.0,STARLINK-3800,PAYLOAD,2024-06-23 23:00:22,15.08860648,0.0001283,53.2159,109.1571,98.5133,261.6004,0.00019616,2.837e-05,0.0,0 STARLINK-3800,1 52379U 22045BA  24175.95858972  .00002837  00000-0  19616-3 0  9997,2 52379  53.2159 109.1571 0001283  98.5133 261.6004 15.08860648121762,6917.817,95.436,540.57,538.795,0.0
52379.0,STARLINK-3800,PAYLOAD,2024-06-24 05:21:54,15.08867941,0.0001256,53.2159,107.9667,105.8141,254.299,0.00026078,3.868e-05,0.0,0 STARLINK-3800,1 52379U 22045BA  24176.22354179  .00003868  00000-0  26078-3 0  9993,2 52379  53.2159 107.9667 0001256 105.8141 254.2990 15.08867941121805,6917.795,95.436,540.529,538.791,0.0
52379.0,STARLINK-3800,PAYLOAD,2024-06-25 02:01:57,15.08827838,0.0001501,53.2164,104.101,99.0618,261.0544,-0.00029834,-5.031e-05,0.0,0 STARLINK-3800,1 52379U 22045BA  24177.08469010 -.00005031  00000-0 -29834-3 0  9998,2 52379  53.2164 104.1010 0001501  99.0618 261.0544 15.08827838121934,6917.918,95.438,540.821,538.744,0.0
52379.0,STARLINK-3800,PAYLOAD,2024-06-25 22:41:56,15.08851515,0.0001432,53.2161,100.2337,95.4096,264.7059,4.1105e-05,3.66e-06,0.0,0 STARLINK-3800,1 52379U 22045BA  24177.94579233  .00000366  00000-0  41105-4 0  9992,2 52379  53.2161 100.2337 0001432  95.4096 264.7059 15.08851515122068,6917.845,95.437,540.701,538.72,0.0
52379.0,STARLINK-3800,PAYLOAD,2024-06-26 01:52:41,15.08876687,0.0001423,53.216,99.6393,105.6794,254.4355,0.00043066,6.579e-05,0.0,0 STARLINK-3800,1 52379U 22045BA  24178.07826074  .00006579  00000-0  43066-3 0  9994,2 52379  53.2160  99.6393 0001423 105.6794 254.4355 15.08876687122083,6917.768,95.435,540.618,538.649,0.0
52379.0,STARLINK-3800,PAYLOAD,2024-06-26 22:32:45,15.08827949,0.0001421,53.2155,95.7755,75.7576,284.3574,0.00013506,1.862e-05,0.0,0 STARLINK-3800,1 52379U 22045BA  24178.93941434  .00001862  00000-0  13506-3 0  9993,2 52379  53.2155  95.7755 0001421  75.7576 284.3574 15.08827949122216,6917.917,95.438,540.765,538.799,0.0
52379.0,STARLINK-3800,PAYLOAD,2024-06-27 03:18:55,15.08820717,0.0001433,53.2157,94.8842,70.626,289.4887,-6.18e-06,-3.86e-06,0.0,0 STARLINK-3800,1 52379U 22045BA  24179.13813931 -.00000386  00000-0 -61800-5 0  9990,2 52379  53.2157  94.8842 0001433  70.6260 289.4887 15.08820717122244,6917.939,95.439,540.796,538.813,0.0
52379.0,STARLINK-3800,PAYLOAD,2024-06-27 22:23:32,15.08835543,0.0001365,53.215,91.3146,70.4953,289.6187,-0.00010803,-2.007e-05,0.0,0 STARLINK-3800,1 52379U 22045BA  24179.93301387 -.00002007  00000-0 -10803-3 0  9992,2 52379  53.2150  91.3146 0001365  70.4953 289.6187 15.08835543122368,6917.894,95.438,540.703,538.815,0.0
52379.0,STARLINK-3800,PAYLOAD,2024-06-28 01:34:18,15.0883845,0.0001476,53.2151,90.7204,70.5586,289.5565,0.00034859,5.264e-05,0.0,0 STARLINK-3800,1 52379U 22045BA  24180.06549586  .00005264  00000-0  34859-3 0  9996,2 52379  53.2151  90.7204 0001476  70.5586 289.5565 15.08838450122384,6917.885,95.438,540.771,538.729,0.0
52379.0,STARLINK-3800,PAYLOAD,2024-06-28 11:06:37,15.08836984,0.0001285,53.2149,88.9375,89.5743,270.5397,0.0010047,0.00015737,0.0,0 STARLINK-3800,1 52379U 22045BA  24180.46293894  .00015737  00000-0  10047-2 0  9996,2 52379  53.2149  88.9375 0001285  89.5743 270.5397 15.08836984122442,6917.89,95.438,540.644,538.866,0.0
52379.0,STARLINK-3800,PAYLOAD,2024-06-28 22:14:19,15.08858491,0.0001313,53.2152,86.8556,84.4542,275.66,0.00068731,0.00010673,0.0,0 STARLINK-3800,1 52379U 22045BA  24180.92661088  .00010673  00000-0  68731-3 0  9999,2 52379  53.2152  86.8556 0001313  84.4542 275.6600 15.08858491122515,6917.824,95.436,540.597,538.781,0.0
52379.0,STARLINK-3800,PAYLOAD,2024-06-29 01:25:04,15.0888078,0.0001304,53.215,86.26,99.7328,260.3812,0.0012011,0.00018901,0.0,0 STARLINK-3800,1 52379U 22045BA  24181.05908404  .00018901  00000-0  12011-2 0  9991,2 52379  53.2150  86.2600 0001304  99.7328 260.3812 15.08880780122532,6917.756,95.435,540.523,538.719,0.0
52379.0,STARLINK-3800,PAYLOAD,2024-06-29 10:57:24,15.08848687,0.0001712,53.2149,84.4758,73.884,286.234,0.00013403,1.846e-05,0.0,0 STARLINK-3800,1 52379U 22045BA  24181.45652890  .00001846  00000-0  13403-3 0  9997,2 52379  53.2149  84.4758 0001712  73.8840 286.2340 15.08848687122598,6917.854,95.437,540.903,538.534,0.0
52379.0,STARLINK-3800,PAYLOAD,2024-06-29 17:18:57,15.08822498,0.0001451,53.2138,83.2879,81.4987,278.617,-0.0005977,-9.783e-05,0.0,0 STARLINK-3800,1 52379U 22045BA  24181.72149429 -.00009783  00000-0 -59770-3 0  9993,2 52379  53.2138  83.2879 0001451  81.4987 278.6170 15.08822498122637,6917.934,95.439,540.803,538.795,0.0
52379.0,STARLINK-3800,PAYLOAD,2024-06-29 22:05:06,15.08825543,0.0001471,53.2137,82.3971,76.9073,283.2084,-0.00015501,-2.753e-05,0.0,0 STARLINK-3800,1 52379U 22045BA  24181.92021768 -.00002753  00000-0 -15501-3 0  9994,2 52379  53.2137  82.3971 0001471  76.9073 283.2084 15.08825543122669,6917.925,95.438,540.807,538.772,0.0
52379.0,STARLINK-3800,PAYLOAD,2024-06-30 10:48:12,15.0883195,0.0001528,53.2147,80.0171,78.5917,281.5247,0.00098993,0.00015498,0.0,0 STARLINK-3800,1 52379U 22045BA  24182.45014502  .00015498  00000-0  98993-3 0  9995,2 52379  53.2147  80.0171 0001528  78.5917 281.5247 15.08831950122745,6917.905,95.438,540.827,538.713,0.0
52379.0,STARLINK-3800,PAYLOAD,2024-06-30 21:55:54,15.08857508,0.0001586,53.216,77.9366,76.5677,283.5492,0.001666,0.00026339,0.0,0 STARLINK-3800,1 52379U 22045BA  24182.91382435  .00026339  00000-0  16660-2 0  9995,2 52379  53.2160  77.9366 0001586  76.5677 283.5492 15.08857508122815,6917.827,95.436,540.789,538.595,0.0
